start=new Date('2022-03-10T00:00:00.000Z').valueOf();
sats=[{"CENTER_NAME":"EARTH","GP_ID":"198363356","MEAN_ELEMENT_THEORY":"SGP4","OBJECT_ID":"2022-017AW","RCS_SIZE":"LARGE","FILE":"3352875","RA_OF_ASC_NODE":"82.8130","TLE_LINE1":"1 51812U 22017AW  22068.91668981  .00094327  00000-0  66998-3 0  9991","ECCENTRICITY":"0.00011840","ELEMENT_SET_NO":"999","SITE":"AFWTR","MEAN_MOTION_DOT":"0.00094327","MEAN_MOTION":"15.73165096","TLE_LINE2":"2 51812  53.2190  82.8130 0001184  72.4973 356.9821 15.73165096  2433","EPHEMERIS_TYPE":"0","INCLINATION":"53.2190","MEAN_ANOMALY":"356.9821","SEMIMAJOR_AXIS":"6727.995","OBJECT_NAME":"STARLINK-3610","DECAY_DATE":null,"PERIOD":"91.535","APOAPSIS":"350.656","OBJECT_TYPE":"PAYLOAD","LAUNCH_DATE":"2022-02-25","BSTAR":"0.00066998000000","REV_AT_EPOCH":"243","PERIAPSIS":"349.063","REF_FRAME":"TEME","COUNTRY_CODE":"US","EPOCH":"2022-03-09T22:00:01.999584","MEAN_MOTION_DDOT":"0.0000000000000","TIME_SYSTEM":"UTC","ARG_OF_PERICENTER":"72.4973","NORAD_CAT_ID":"51812","CLASSIFICATION_TYPE":"U"},{"REV_AT_EPOCH":"243","BSTAR":"0.00067602000000","PERIAPSIS":"349.093","EPOCH":"2022-03-09T22:00:01.999584","COUNTRY_CODE":"US","REF_FRAME":"TEME","TIME_SYSTEM":"UTC","MEAN_MOTION_DDOT":"0.0000000000000","ARG_OF_PERICENTER":"71.7624","NORAD_CAT_ID":"51813","CLASSIFICATION_TYPE":"U","MEAN_ANOMALY":"356.3890","INCLINATION":"53.2187","EPHEMERIS_TYPE":"0","SEMIMAJOR_AXIS":"6728.003","OBJECT_NAME":"STARLINK-3552","DECAY_DATE":null,"PERIOD":"91.535","OBJECT_TYPE":"PAYLOAD","APOAPSIS":"350.644","LAUNCH_DATE":"2022-02-25","SITE":"AFWTR","MEAN_MOTION_DOT":"0.00095180","MEAN_MOTION":"15.73162040","TLE_LINE2":"2 51813  53.2187  82.8155 0001153  71.7624 356.3890 15.73162040  2434","OBJECT_ID":"2022-017AX","GP_ID":"198363139","CENTER_NAME":"EARTH","MEAN_ELEMENT_THEORY":"SGP4","RCS_SIZE":"LARGE","FILE":"3352875","ECCENTRICITY":"0.00011530","TLE_LINE1":"1 51813U 22017AX  22068.91668981  .00095180  00000-0  67602-3 0  9993","RA_OF_ASC_NODE":"82.8155","ELEMENT_SET_NO":"999"},{"EPHEMERIS_TYPE":"0","INCLINATION":"53.2193","MEAN_ANOMALY":"8.1626","SEMIMAJOR_AXIS":"6727.940","DECAY_DATE":null,"PERIOD":"91.534","OBJECT_NAME":"STARLINK-3599","OBJECT_TYPE":"PAYLOAD","APOAPSIS":"350.657","LAUNCH_DATE":"2022-02-25","BSTAR":"0.00047479000000","REV_AT_EPOCH":"243","PERIAPSIS":"348.954","COUNTRY_CODE":"US","REF_FRAME":"TEME","EPOCH":"2022-03-09T22:00:01.999584","MEAN_MOTION_DDOT":"0.0000000000000","TIME_SYSTEM":"UTC","ARG_OF_PERICENTER":"62.6617","NORAD_CAT_ID":"51814","CLASSIFICATION_TYPE":"U","CENTER_NAME":"EARTH","GP_ID":"198363790","MEAN_ELEMENT_THEORY":"SGP4","OBJECT_ID":"2022-017AY","RCS_SIZE":"LARGE","FILE":"3352875","RA_OF_ASC_NODE":"82.8107","TLE_LINE1":"1 51814U 22017AY  22068.91668981  .00066497  00000-0  47479-3 0  9993","ECCENTRICITY":"0.00012660","ELEMENT_SET_NO":"999","SITE":"AFWTR","MEAN_MOTION_DOT":"0.00066497","MEAN_MOTION":"15.73184118","TLE_LINE2":"2 51814  53.2193  82.8107 0001266  62.6617   8.1626 15.73184118  2434"},{"EPHEMERIS_TYPE":"0","INCLINATION":"53.2186","MEAN_ANOMALY":"18.6339","SEMIMAJOR_AXIS":"6727.746","DECAY_DATE":null,"PERIOD":"91.530","OBJECT_NAME":"STARLINK-3604","OBJECT_TYPE":"PAYLOAD","APOAPSIS":"350.592","LAUNCH_DATE":"2022-02-25","BSTAR":"0.00004799500000","REV_AT_EPOCH":"242","PERIAPSIS":"348.630","REF_FRAME":"TEME","COUNTRY_CODE":"US","EPOCH":"2022-03-09T22:00:01.999584","MEAN_MOTION_DDOT":"0.0000000000000","TIME_SYSTEM":"UTC","ARG_OF_PERICENTER":"51.5416","NORAD_CAT_ID":"51815","CLASSIFICATION_TYPE":"U","MEAN_ELEMENT_THEORY":"SGP4","GP_ID":"198363573","CENTER_NAME":"EARTH","OBJECT_ID":"2022-017AZ","RCS_SIZE":"LARGE","FILE":"3352875","RA_OF_ASC_NODE":"82.8112","TLE_LINE1":"1 51815U 22017AZ  22068.91668981  .00006135  00000-0  47995-4 0  9991","ECCENTRICITY":"0.00014580","ELEMENT_SET_NO":"999","SITE":"AFWTR","MEAN_MOTION_DOT":"0.00006135","MEAN_MOTION":"15.73252439","TLE_LINE2":"2 51815  53.2186  82.8112 0001458  51.5416  18.6339 15.73252439  2428"},{"MEAN_ELEMENT_THEORY":"SGP4","GP_ID":"198363682","CENTER_NAME":"EARTH","OBJECT_ID":"2022-017BA","RCS_SIZE":"LARGE","FILE":"3352875","RA_OF_ASC_NODE":"82.8094","ECCENTRICITY":"0.00013570","TLE_LINE1":"1 51816U 22017BA  22068.91668981  .00090243  00000-0  64137-3 0  9991","ELEMENT_SET_NO":"999","SITE":"AFWTR","MEAN_MOTION_DOT":"0.00090243","MEAN_MOTION":"15.73168835","TLE_LINE2":"2 51816  53.2192  82.8094 0001357  69.1285   2.2973 15.73168835  2421","EPHEMERIS_TYPE":"0","INCLINATION":"53.2192","MEAN_ANOMALY":"2.2973","SEMIMAJOR_AXIS":"6727.984","PERIOD":"91.535","DECAY_DATE":null,"OBJECT_NAME":"STARLINK-3603","OBJECT_TYPE":"PAYLOAD","APOAPSIS":"350.762","LAUNCH_DATE":"2022-02-25","BSTAR":"0.00064137000000","REV_AT_EPOCH":"242","PERIAPSIS":"348.936","REF_FRAME":"TEME","COUNTRY_CODE":"US","EPOCH":"2022-03-09T22:00:01.999584","MEAN_MOTION_DDOT":"0.0000000000000","TIME_SYSTEM":"UTC","ARG_OF_PERICENTER":"69.1285","NORAD_CAT_ID":"51816","CLASSIFICATION_TYPE":"U"},{"REF_FRAME":"TEME","COUNTRY_CODE":"US","EPOCH":"2022-03-09T22:00:01.999584","TIME_SYSTEM":"UTC","MEAN_MOTION_DDOT":"0.0000000000000","REV_AT_EPOCH":"243","BSTAR":"-0.00117810000000","PERIAPSIS":"309.284","CLASSIFICATION_TYPE":"U","ARG_OF_PERICENTER":"279.5645","NORAD_CAT_ID":"51817","SEMIMAJOR_AXIS":"6690.538","MEAN_ANOMALY":"134.2939","INCLINATION":"53.2173","EPHEMERIS_TYPE":"0","APOAPSIS":"315.523","OBJECT_TYPE":"PAYLOAD","LAUNCH_DATE":"2022-02-25","PERIOD":"90.772","DECAY_DATE":null,"OBJECT_NAME":"STARLINK-3596","MEAN_MOTION_DOT":"-0.00293488","SITE":"AFWTR","TLE_LINE2":"2 51817  53.2173  82.1221 0004662 279.5645 134.2939 15.86394374  2437","MEAN_MOTION":"15.86394374","RCS_SIZE":"LARGE","OBJECT_ID":"2022-017BB","GP_ID":"198363465","CENTER_NAME":"EARTH","MEAN_ELEMENT_THEORY":"SGP4","ELEMENT_SET_NO":"999","FILE":"3352875","ECCENTRICITY":"0.00046620","TLE_LINE1":"1 51817U 22017BB  22068.91668981 -.00293488  00000-0 -11781-2 0  9996","RA_OF_ASC_NODE":"82.1221"},{"RCS_SIZE":null,"GP_ID":"198335939","CENTER_NAME":"EARTH","MEAN_ELEMENT_THEORY":"SGP4","OBJECT_ID":"2022-022A","ELEMENT_SET_NO":"999","FILE":"3352762","RA_OF_ASC_NODE":"112.9667","TLE_LINE1":"1 51852U 22022A   22068.91668981 -.00872065  00000-0 -56768-2 0  9999","ECCENTRICITY":"0.00012590","MEAN_MOTION_DOT":"-0.00872065","SITE":"AFETR","TLE_LINE2":"2 51852  53.2173 112.9667 0001259  52.8236  92.2853 15.77572140  2256","MEAN_MOTION":"15.77572140","SEMIMAJOR_AXIS":"6715.459","INCLINATION":"53.2173","EPHEMERIS_TYPE":"0","MEAN_ANOMALY":"92.2853","OBJECT_TYPE":"PAYLOAD","APOAPSIS":"338.169","LAUNCH_DATE":"2022-03-03","DECAY_DATE":null,"PERIOD":"91.280","OBJECT_NAME":"STARLINK-3542","REF_FRAME":"TEME","COUNTRY_CODE":"US","EPOCH":"2022-03-09T22:00:01.999584","MEAN_MOTION_DDOT":"0.0000000000000","TIME_SYSTEM":"UTC","BSTAR":"-0.00567680000000","REV_AT_EPOCH":"225","PERIAPSIS":"336.478","CLASSIFICATION_TYPE":"U","ARG_OF_PERICENTER":"52.8236","NORAD_CAT_ID":"51852"},{"RA_OF_ASC_NODE":"112.9680","TLE_LINE1":"1 51853U 22022B   22068.91668981 -.00872080  00000-0 -56827-2 0  9993","ECCENTRICITY":"0.00012330","FILE":"3352762","ELEMENT_SET_NO":"999","MEAN_ELEMENT_THEORY":"SGP4","GP_ID":"198335474","CENTER_NAME":"EARTH","OBJECT_ID":"2022-022B","RCS_SIZE":null,"MEAN_MOTION":"15.77549749","TLE_LINE2":"2 51853  53.2173 112.9680 0001233  53.6821  90.9743 15.77549749  2200","SITE":"AFETR","MEAN_MOTION_DOT":"-0.00872080","DECAY_DATE":null,"OBJECT_NAME":"STARLINK-3539","PERIOD":"91.281","LAUNCH_DATE":"2022-03-03","APOAPSIS":"338.215","OBJECT_TYPE":"PAYLOAD","EPHEMERIS_TYPE":"0","INCLINATION":"53.2173","MEAN_ANOMALY":"90.9743","SEMIMAJOR_AXIS":"6715.522","NORAD_CAT_ID":"51853","ARG_OF_PERICENTER":"53.6821","CLASSIFICATION_TYPE":"U","PERIAPSIS":"336.559","BSTAR":"-0.00568270000000","REV_AT_EPOCH":"220","MEAN_MOTION_DDOT":"0.0000000000000","TIME_SYSTEM":"UTC","COUNTRY_CODE":"US","REF_FRAME":"TEME","EPOCH":"2022-03-09T22:00:01.999584"},{"APOAPSIS":"338.041","OBJECT_TYPE":"PAYLOAD","LAUNCH_DATE":"2022-03-03","DECAY_DATE":null,"OBJECT_NAME":"STARLINK-3541","PERIOD":"91.278","SEMIMAJOR_AXIS":"6715.396","MEAN_ANOMALY":"84.3564","INCLINATION":"53.2173","EPHEMERIS_TYPE":"0","CLASSIFICATION_TYPE":"U","ARG_OF_PERICENTER":"61.2074","NORAD_CAT_ID":"51854","COUNTRY_CODE":"US","REF_FRAME":"TEME","EPOCH":"2022-03-09T22:00:01.999584","TIME_SYSTEM":"UTC","MEAN_MOTION_DDOT":"0.0000000000000","REV_AT_EPOCH":"163","BSTAR":"-0.00567270000000","PERIAPSIS":"336.481","ELEMENT_SET_NO":"999","FILE":"3352875","TLE_LINE1":"1 51854U 22022C   22068.91668981 -.00872250  00000-0 -56727-2 0  9992","ECCENTRICITY":"0.00011620","RA_OF_ASC_NODE":"112.9657","RCS_SIZE":null,"OBJECT_ID":"2022-022C","CENTER_NAME":"EARTH","GP_ID":"198363795","MEAN_ELEMENT_THEORY":"SGP4","TLE_LINE2":"2 51854  53.2173 112.9657 0001162  61.2074  84.3564 15.77594259  1631","MEAN_MOTION":"15.77594259","MEAN_MOTION_DOT":"-0.00872250","SITE":"AFETR"},{"TLE_LINE1":"1 51855U 22022D   22068.91668981 -.00872273  00000-0 -56607-2 0  9995","ECCENTRICITY":"0.00012160","RA_OF_ASC_NODE":"112.9643","FILE":"3352762","ELEMENT_SET_NO":"999","OBJECT_ID":"2022-022D","CENTER_NAME":"EARTH","GP_ID":"198335932","MEAN_ELEMENT_THEORY":"SGP4","RCS_SIZE":null,"MEAN_MOTION":"15.77641422","TLE_LINE2":"2 51855  53.2173 112.9643 0001216  56.0032  90.4410 15.77641422  2200","SITE":"AFETR","MEAN_MOTION_DOT":"-0.00872273","DECAY_DATE":null,"PERIOD":"91.275","OBJECT_NAME":"STARLINK-3545","LAUNCH_DATE":"2022-03-03","OBJECT_TYPE":"PAYLOAD","APOAPSIS":"337.944","MEAN_ANOMALY":"90.4410","INCLINATION":"53.2173","EPHEMERIS_TYPE":"0","SEMIMAJOR_AXIS":"6715.262","NORAD_CAT_ID":"51855","ARG_OF_PERICENTER":"56.0032","CLASSIFICATION_TYPE":"U","PERIAPSIS":"336.311","REV_AT_EPOCH":"220","BSTAR":"-0.00566070000000","TIME_SYSTEM":"UTC","MEAN_MOTION_DDOT":"0.0000000000000","EPOCH":"2022-03-09T22:00:01.999584","COUNTRY_CODE":"US","REF_FRAME":"TEME"}];
